[{"OBJECT_NAME":"OBJECT B","OBJECT_ID":"2024-092B","EPOCH":"2026-03-09T22:35:16.756224","MEAN_MOTION":15.26654665,"ECCENTRICITY":0.00097063,"INCLINATION":97.6334,"RA_OF_ASC_NODE":195.5822,"ARG_OF_PERICENTER":166.5945,"MEAN_ANOMALY":193.5553,"EPHEMERIS_TYPE":0,"CLASSIFICATION_TYPE":"U","NORAD_CAT_ID":59774,"ELEMENT_SET_NO":999,"REV_AT_EPOCH":10038,"BSTAR":0.00052893964,"MEAN_MOTION_DOT":0.00013825,"MEAN_MOTION_DDOT":0},{"OBJECT_NAME":"CZ-2C R\/B","OBJECT_ID":"2024-218A","EPOCH":"2026-03-09T22:16:31.791072","MEAN_MOTION":15.22960743,"ECCENTRICITY":0.00453409,"INCLINATION":97.5416,"RA_OF_ASC_NODE":83.973,"ARG_OF_PERICENTER":359.5317,"MEAN_ANOMALY":0.5869,"EPHEMERIS_TYPE":0,"CLASSIFICATION_TYPE":"U","NORAD_CAT_ID":62078,"ELEMENT_SET_NO":999,"REV_AT_EPOCH":7134,"BSTAR":0.00039378379,"MEAN_MOTION_DOT":9.445e-5,"MEAN_MOTION_DDOT":0}]
